     2.100          NAVIGATION                              RINEX VERSION / TYPE
fic2rin                                 06/18/2015 00:20:56 PGM / RUN BY / DATE
                                                            END OF HEADER
18 15  6 17  1 59 44.0  .409965403378D-03  .295585778076D-11  .000000000000D+00
     .390000000000D+02 -.790625000000D+01  .603453707698D-08  .620292970035D+00
    -.257045030594D-06  .163227994926D-01  .497512519360D-05  .515359779549D+04
     .266384000000D+06 -.204890966415D-06 -.128325483950D+01  .558793544769D-07
     .924576438537D+00  .269312500000D+03 -.195513541976D+01 -.898430280370D-08
    -.391087718945D-09  .100000000000D+01  .184900000000D+04  .000000000000D+00
     .240000000000D+01  .000000000000D+00 -.111758708954D-07  .390000000000D+02
     .259206000000D+06  .400000000000D+01
30 15  6 17  1 59 44.0 -.423644669354D-04  .670752342558D-11  .000000000000D+00
     .140000000000D+02  .127937500000D+03  .442804158856D-08  .275060191203D+01
     .668317079544D-05  .151479628403D-02  .534951686859D-05  .515373781204D+04
     .266384000000D+06 -.260770320892D-07  .905533629510D+00 -.186264514923D-07
     .955894664850D+00  .273968750000D+03  .292202757859D+01 -.815783980677D-08
     .270725562521D-09  .100000000000D+01  .184900000000D+04  .000000000000D+00
     .240000000000D+01  .000000000000D+00  .325962901115D-08  .140000000000D+02
     .259206000000D+06  .400000000000D+01
 1 15  6 17  2  0  0.0 -.417605042458D-05  .454747350886D-12  .000000000000D+00
     .660000000000D+02  .131875000000D+02  .457840499466D-08 -.297860834766D+01
     .657513737679D-06  .436221132986D-02  .968948006630D-05  .515366346931D+04
     .266400000000D+06 -.614672899246D-07 -.230331780191D+01 -.875443220139D-07
     .962298620926D+00  .194843750000D+03  .389535809547D+00 -.778675292094D-08
     .622525930704D-09  .100000000000D+01  .184900000000D+04  .000000000000D+00
     .240000000000D+01  .000000000000D+00  .558793544769D-08  .660000000000D+02
     .259206000000D+06  .400000000000D+01
 2 15  6 17  2  0  0.0  .572558958083D-03  .238742359215D-11  .000000000000D+00
     .610000000000D+02  .214062500000D+02  .507056835238D-08 -.251811039194D+01
     .107660889626D-05  .145995466737D-01  .932998955250D-05  .515357466888D+04
     .266400000000D+06  .204890966415D-06 -.234134213393D+01 -.150874257088D-06
     .940967415961D+00  .185718750000D+03 -.225636922487D+01 -.798461830569D-08
     .727887462292D-09  .100000000000D+01  .184900000000D+04  .000000000000D+00
     .240000000000D+01  .000000000000D+00 -.204890966415D-07  .610000000000D+02
     .259206000000D+06  .400000000000D+01
 3 15  6 17  2  0  0.0  .351370777935D-03  .693489710102D-11  .000000000000D+00
     .740000000000D+02 -.706250000000D+01  .507342561426D-08 -.112859329689D+01
    -.424683094025D-06  .874405726790D-03  .469200313091D-05  .515365427017D+04
     .266400000000D+06 -.335276126862D-07 -.126235135375D+01  .260770320892D-07
     .958785281255D+00  .286875000000D+03 -.255490264558D+01 -.822462830307D-08
    -.215723271454D-09  .100000000000D+01  .184900000000D+04  .000000000000D+00
     .240000000000D+01  .000000000000D+00  .186264514923D-08  .740000000000D+02
     .259206000000D+06  .400000000000D+01
 4 15  6 17  2  0  0.0 -.197682529688D-04 -.204636307899D-11  .000000000000D+00
     .420000000000D+02  .809375000000D+01  .504199573365D-08  .305315479380D+01
     .311061739922D-06  .113939390285D-01  .950135290623D-05  .515368012047D+04
     .266400000000D+06  .800937414169D-07 -.232609967009D+01 -.244006514549D-06
     .940019240237D+00  .182625000000D+03  .106314250587D+01 -.793104464556D-08
     .607525305868D-09  .100000000000D+01  .184900000000D+04  .000000000000D+00
     .240000000000D+01  .000000000000D+00 -.651925802231D-08  .420000000000D+02
     .259206000000D+06  .400000000000D+01
 5 15  6 17  2  0  0.0 -.228554476053D-03  .443378667114D-11  .000000000000D+00
     .350000000000D+02 -.155937500000D+02  .539736767917D-08 -.216478901558D-01
    -.875443220139D-06  .415183056612D-02  .456161797047D-05  .515356769943D+04
     .266400000000D+06 -.186264514923D-07 -.126965269596D+01  .391155481339D-07
     .945997414007D+00  .280500000000D+03  .368365633827D+00 -.846463830045D-08
    -.372872674501D-09  .100000000000D+01  .184900000000D+04  .000000000000D+00
     .240000000000D+01  .000000000000D+00 -.107102096081D-07  .350000000000D+02
     .259206000000D+06  .400000000000D+01
 6 15  6 17  2  0  0.0  .186230055988D-03  .864019966684D-11  .000000000000D+00
     .300000000000D+02  .195312500000D+02  .469019536546D-08 -.128388888283D+01
     .114925205708D-05  .122491386719D-03  .951625406742D-05  .515376752472D+04
     .266400000000D+06 -.186264514923D-07 -.231181429991D+01  .558793544769D-07
     .962186195671D+00  .198125000000D+03 -.286976535978D+01 -.795533137148D-08
     .627883296717D-09  .100000000000D+01  .184900000000D+04  .000000000000D+00
     .240000000000D+01  .000000000000D+00  .419095158577D-08  .300000000000D+02
     .259206000000D+06  .400000000000D+01
 7 15  6 17  2  0  0.0  .469114165753D-03  .227373675443D-11  .000000000000D+00
     .800000000000D+01  .137656250000D+03  .408659879467D-08  .265682040602D+01
     .712834298611D-05  .851714704186D-02  .648014247417D-05  .515371665764D+04
     .266400000000D+06 -.132247805595D-06  .856489101946D+00 -.102445483208D-06
     .970184660771D+00  .258687500000D+03 -.274955716616D+01 -.788389982464D-08
     .314298806093D-09  .100000000000D+01  .184900000000D+04  .000000000000D+00
     .240000000000D+01  .000000000000D+00 -.111758708954D-07  .800000000000D+01
     .259206000000D+06  .400000000000D+01
 8 15  6 17  2  0  0.0 -.224225223064D-03 -.159161572810D-11  .000000000000D+00
     .990000000000D+02 -.405625000000D+02  .557416075760D-08  .197440693409D+00
    -.214204192162D-05  .778008275665D-02  .648200511932D-06  .515371442223D+04
     .266400000000D+06 -.651925802231D-07  .189937151489D+01  .150874257088D-06
     .982810164594D+00  .380000000000D+03  .889302326669D+00 -.840927885165D-08
    -.482162941165D-10  .100000000000D+01  .184900000000D+04  .000000000000D+00
     .340000000000D+01  .630000000000D+02 -.190921127796D-07  .990000000000D+02
     .259206000000D+06  .400000000000D+01
 9 15  6 17  2  0  0.0 -.171193853021D-03 -.432009983342D-11  .000000000000D+00
     .920000000000D+02  .152812500000D+02  .434125225915D-08 -.159457117695D+01
     .767409801483D-06  .468862825073D-03  .112503767014D-04  .515379732704D+04
     .266400000000D+06 -.316649675369D-07 -.219534859891D+00  .633299350739D-07
     .957620273277D+00  .160031250000D+03  .264845210938D+01 -.778996734055D-08
    -.577881213929D-09  .100000000000D+01  .184900000000D+04  .000000000000D+00
     .240000000000D+01  .000000000000D+00  .465661287308D-09  .920000000000D+02
     .259206000000D+06  .400000000000D+01
10 15  6 17  2  0  0.0 -.179177615792D-03 -.147792889038D-11  .000000000000D+00
     .460000000000D+02 -.113750000000D+02  .562416284039D-08  .278946643156D+00
    -.344589352608D-06  .147517874138D-01  .467710196972D-05  .515368035698D+04
     .266400000000D+06 -.745058059692D-07 -.125467678895D+01  .135973095894D-06
     .940795629880D+00  .276750000000D+03  .933575949220D+00 -.879143762724D-08
    -.382873091058D-09  .100000000000D+01  .184900000000D+04  .000000000000D+00
     .240000000000D+01  .000000000000D+00 -.279396772385D-08  .460000000000D+02
     .259206000000D+06  .400000000000D+01
11 15  6 17  2  0  0.0 -.585486646742D-03 -.250111042988D-11  .000000000000D+00
     .860000000000D+02 -.315000000000D+02  .585274379027D-08  .271483986286D+01
    -.172294676304D-05  .158754866570D-01  .107735395432D-04  .515374265480D+04
     .266400000000D+06  .188127160072D-06 -.265547253914D+01 -.199303030968D-06
     .893579344686D+00  .132875000000D+03  .141118274211D+01 -.819998441941D-08
     .471091051405D-09  .100000000000D+01  .184900000000D+04  .000000000000D+00
     .240000000000D+01  .000000000000D+00 -.121071934700D-07  .860000000000D+02
     .259206000000D+06  .400000000000D+01
12 15  6 17  2  0  0.0  .302100088447D-03  .318323145621D-11  .000000000000D+00
     .660000000000D+02 -.554062500000D+02  .407981279772D-08  .210480717849D+01
    -.286288559437D-05  .559385726228D-02  .918284058571D-06  .515366343689D+04
     .266400000000D+06 -.165775418282D-06  .192618898742D+01 -.409781932831D-07
     .989570797653D+00  .374968750000D+03  .617815080855D+00 -.818891252965D-08
    -.485734518507D-10  .100000000000D+01  .184900000000D+04  .000000000000D+00
     .340000000000D+01  .000000000000D+00 -.121071934700D-07  .660000000000D+02
     .259206000000D+06  .400000000000D+01
13 15  6 17  2  0  0.0 -.124045182019D-03 -.341060513165D-11  .000000000000D+00
     .950000000000D+02  .491875000000D+02  .377337146178D-08 -.287135253812D+01
     .254809856415D-05  .504375318997D-02  .118408352137D-04  .515368766594D+04
     .266400000000D+06  .726431608200D-07 -.104178750069D+00  .186264514923D-07
     .974380671163D+00  .161218750000D+03  .209636278231D+01 -.742280918980D-08
    -.558594696283D-09  .100000000000D+01  .184900000000D+04  .000000000000D+00
     .240000000000D+01  .000000000000D+00 -.111758708954D-07  .950000000000D+02
     .259206000000D+06  .400000000000D+01
14 15  6 17  2  0  0.0  .555035658181D-04 -.272848410532D-11  .000000000000D+00
     .700000000000D+02  .416875000000D+02  .413124351145D-08 -.937540853665D+00
     .209733843803D-05  .823311961722D-02  .116545706987D-04  .515361193657D+04
     .266400000000D+06 -.745058059692D-08 -.138890522079D+00  .147148966789D-06
     .966854602792D+00  .159906250000D+03 -.197797598753D+01 -.780389649218D-08
    -.618954353362D-09  .100000000000D+01  .184900000000D+04  .000000000000D+00
     .340000000000D+01  .000000000000D+00 -.931322574615D-08  .700000000000D+02
     .259206000000D+06  .400000000000D+01
